H1 CPF 01  gfz 2021 11 24 13  8282 terrasarx 
H2 0702601  6201 31698    2021 11 24 12 59 42 2021 11 29 00 00 42   120 1 1  0 0 0
H9
10 0 59545  69102.000000  0    4736270.676   -820414.000  -4942282.947
10 0 59545  69222.000000  0    5287001.619  -1135353.325  -4276031.816
10 0 59545  69342.000000  0    5740347.098  -1439328.421  -3534869.170
10 0 59545  69462.000000  0    6088568.328  -1725252.452  -2731713.833
10 0 59545  69582.000000  0    6325870.152  -1986225.008  -1880602.863
10 0 59545  69702.000000  0    6448509.009  -2215691.054   -996447.481
10 0 59545  69822.000000  0    6454861.731  -2407595.774    -94769.858
10 0 59545  69942.000000  0    6345453.020  -2556532.088    808574.729
10 0 59545  70062.000000  0    6122939.912  -2657876.090   1697684.711
10 0 59545  70182.000000  0    5792052.457  -2707907.340   2556901.651
10 0 59545  70302.000000  0    5359492.490  -2703910.823   3371094.534
10 0 59545  70422.000000  0    4833792.453  -2644256.881   4125933.439
10 0 59545  70542.000000  0    4225140.277  -2528457.859   4808144.448
10 0 59545  70662.000000  0    3545175.394  -2357201.808   5405745.305
10 0 59545  70782.000000  0    2806756.555  -2132360.888   5908255.144
10 0 59545  70902.000000  0    2023711.369  -1856974.164   6306873.380
10 0 59545  71022.000000  0    1210572.326  -1535206.946   6594628.147
10 0 59545  71142.000000  0     382303.655  -1172286.944   6766492.332
10 0 59545  71262.000000  0    -445975.447   -774417.997   6819465.592
10 0 59545  71382.000000  0   -1259265.974   -348673.427   6752622.547
10 0 59545  71502.000000  0   -2042959.314     97129.355   6567127.847
10 0 59545  71622.000000  0   -2783098.498    554571.806   6266217.463
10 0 59545  71742.000000  0   -3466627.038   1014792.144   5855146.429
10 0 59545  71862.000000  0   -4081621.907   1468655.670   5341103.363
10 0 59545  71982.000000  0   -4617507.064   1906935.001   4733091.291
10 0 59545  72102.000000  0   -5065242.550   2320497.456   4041775.088
10 0 59545  72222.000000  0   -5417484.479   2700495.409   3279297.729
10 0 59545  72342.000000  0   -5668712.787   3038554.884   2459068.596
10 0 59545  72462.000000  0   -5815324.819   3326958.980   1595527.136
10 0 59545  72582.000000  0   -5855691.771   3558822.028    703883.913
10 0 59545  72702.000000  0   -5790173.590   3728248.139   -200155.144
10 0 59545  72822.000000  0   -5621094.264   3830470.536  -1100673.552
10 0 59545  72942.000000  0   -5352678.051   3861969.305  -1981833.573
10 0 59545  73062.000000  0   -4990946.152   3820562.956  -2828164.427
10 0 59545  73182.000000  0   -4543577.611   3705471.752  -3624839.764
10 0 59545  73302.000000  0   -4019739.052   3517351.635  -4357939.477
10 0 59545  73422.000000  0   -3429889.422   3258299.399  -5014690.482
10 0 59545  73542.000000  0   -2785564.023   2931828.928  -5583682.596
10 0 59545  73662.000000  0   -2099145.301   2542820.860  -6055057.782
10 0 59545  73782.000000  0   -1383621.614   2097445.722  -6420671.302
10 0 59545  73902.000000  0    -652341.136   1603062.408  -6674220.015
10 0 59545  74022.000000  0      81233.910   1068095.637  -6811340.314
10 0 59545  74142.000000  0     803769.195    501893.534  -6829674.748
10 0 59545  74262.000000  0    1502295.264    -85432.366  -6728909.923
10 0 59545  74382.000000  0    2164435.641   -683184.116  -6510780.078
10 0 59545  74502.000000  0    2778620.800  -1280266.980  -6179040.377
10 0 59545  74622.000000  0    3334287.877  -1865390.180  -5739408.947
10 0 59545  74742.000000  0    3822062.151  -2427275.554  -5199479.242
10 0 59545  74862.000000  0    4233919.575  -2954873.864  -4568600.248
10 0 59545  74982.000000  0    4563323.175  -3437582.198  -3857724.262
10 0 59545  75102.000000  0    4805333.018  -3865457.708  -3079226.666
10 0 59545  75222.000000  0    4956688.154  -4229425.025  -2246697.726
10 0 59545  75342.000000  0    5015856.350  -4521471.408  -1374708.331
10 0 59545  75462.000000  0    4983050.371  -4734825.408   -478554.444
10 0 59545  75582.000000  0    4860208.322  -4864113.883    426015.914
10 0 59545  75702.000000  0    4650938.835  -4905492.085   1323086.685
10 0 59545  75822.000000  0    4360432.277  -4856743.080   2196863.053
10 0 59545  75942.000000  0    3995339.475  -4717344.411   3031957.767
10 0 59545  76062.000000  0    3563622.713  -4488500.715   3813669.621
10 0 59545  76182.000000  0    3074380.976  -4173140.757   4528247.901
10 0 59545  76302.000000  0    2537655.375  -3775879.019   5163136.792
10 0 59545  76422.000000  0    1964219.831  -3302944.186   5707195.400
10 0 59545  76542.000000  0    1365361.130  -2762075.736   6150890.835
10 0 59545  76662.000000  0     752653.874  -2162391.328   6486459.334
10 0 59545  76782.000000  0     137735.161  -1514229.139   6708035.693
10 0 59545  76902.000000  0    -467916.330   -828967.267   6811749.837
10 0 59545  77022.000000  0   -1053193.444   -118822.311   6795790.364
10 0 59545  77142.000000  0   -1607563.349    603368.270   6660433.999
10 0 59545  77262.000000  0   -2121256.450   1324377.562   6408041.042
10 0 59545  77382.000000  0   -2585438.769   2030830.388   6043016.873
10 0 59545  77502.000000  0   -2992364.931   2709451.019   5571740.141
10 0 59545  77622.000000  0   -3335510.053   3347314.103   5002457.981
10 0 59545  77742.000000  0   -3609678.407   3932093.644   4345147.834
10 0 59545  77862.000000  0   -3811085.744   4452306.148   3611347.714
10 0 59545  77982.000000  0   -3937413.428   4897542.391   2813956.332
10 0 59545  78102.000000  0   -3987833.018   5258682.065   1967005.429
10 0 59545  78222.000000  0   -3962999.529   5528085.056   1085409.422
10 0 59545  78342.000000  0   -3865015.187   5699755.902    184697.958
10 0 59545  78462.000000  0   -3697364.264   5769477.992   -719265.680
10 0 59545  78582.000000  0   -3464817.960   5734911.068  -1610574.677
10 0 59545  78702.000000  0   -3173313.038   5595649.407  -2473568.640
10 0 59545  78822.000000  0   -2829806.270   5353240.610  -3293115.052
10 0 59545  78942.000000  0   -2442112.489   5011165.345  -4054877.900
10 0 59545  79062.000000  0   -2018728.595   4574778.493  -4745568.217
10 0 59545  79182.000000  0   -1568648.169   4051215.016  -5353170.196
10 0 59545  79302.000000  0   -1101172.398   3449265.028  -5867142.476
10 0 59545  79422.000000  0    -625719.585   2779218.324  -6278592.537
10 0 59545  79542.000000  0    -151637.505   2052682.013  -6580419.262
10 0 59545  79662.000000  0     311976.360   1282377.504  -6767423.743
10 0 59545  79782.000000  0     756444.594    481919.022  -6836390.231
10 0 59545  79902.000000  0    1173668.684   -334423.107  -6786135.635
10 0 59545  80022.000000  0    1556272.718  -1151972.095  -6617526.422
10 0 59545  80142.000000  0    1897730.205  -1955901.467  -6333464.324
10 0 59545  80262.000000  0    2192473.972  -2731496.945  -5938842.326
10 0 59545  80382.000000  0    2435986.838  -3464421.331  -5440470.738
10 0 59545  80502.000000  0    2624872.535  -4140980.412  -4846970.717
10 0 59545  80622.000000  0    2756903.700  -4748380.188  -4168634.042
10 0 59545  80742.000000  0    2831046.700  -5274972.081  -3417255.514
10 0 59545  80862.000000  0    2847462.926  -5710484.816  -2605937.189
10 0 59545  80982.000000  0    2807485.955  -6046234.286  -1748864.523
10 0 59545  81102.000000  0    2713575.243  -6275306.900   -861059.637
10 0 59545  81222.000000  0    2569244.928  -6392710.858     41885.992
10 0 59545  81342.000000  0    2378969.865  -6395489.072    944091.713
10 0 59545  81462.000000  0    2148072.426  -6282793.276   1829674.547
10 0 59545  81582.000000  0    1882591.264  -6055915.058   2683039.250
10 0 59545  81702.000000  0    1589135.913  -5718272.156   3489161.041
10 0 59545  81822.000000  0    1274731.467  -5275352.687   4233855.842
10 0 59545  81942.000000  0     946657.234  -4734619.078   4904032.736
10 0 59545  82062.000000  0     612283.464  -4105374.843   5487925.676
10 0 59545  82182.000000  0     278909.075  -3398594.314   5975298.971
10 0 59545  82302.000000  0     -46394.054  -2626721.316   6357621.255
10 0 59545  82422.000000  0    -356928.090  -1803444.031   6628207.501
10 0 59545  82542.000000  0    -646504.295   -943449.571   6782329.862
10 0 59545  82662.000000  0    -909564.490    -62160.449   6817296.423
10 0 59545  82782.000000  0   -1141286.752    824542.739   6732495.575
10 0 59545  82902.000000  0   -1337673.330   1700607.038   6529405.704
10 0 59545  83022.000000  0   -1495619.497   2550096.883   6211571.114
10 0 59545  83142.000000  0   -1612962.957   3357484.096   5784544.136
10 0 59545  83262.000000  0   -1688512.510   4107933.350   5255793.347
10 0 59545  83382.000000  0   -1722055.424   4787578.935   4634580.051
10 0 59545  83502.000000  0   -1714344.106   5383788.260   3931801.462
10 0 59545  83622.000000  0   -1667060.935   5885405.182   3159803.060
10 0 59545  83742.000000  0   -1582763.852   6282967.894   2332162.873
10 0 59545  83862.000000  0   -1464812.166   6568897.115   1463450.656
10 0 59545  83982.000000  0   -1317273.206   6737648.604    568966.218
10 0 59545  84102.000000  0   -1144813.616   6785825.631   -335536.593
10 0 59545  84222.000000  0    -952578.007   6712250.668  -1234136.128
10 0 59545  84342.000000  0    -746056.727   6517989.862  -2111034.802
10 0 59545  84462.000000  0    -530948.237   6206329.408  -2950844.645
10 0 59545  84582.000000  0    -313019.587   5782709.360  -3738860.603
10 0 59545  84702.000000  0     -97967.530   5254617.556  -4461318.725
10 0 59545  84822.000000  0     108716.130   4631445.012  -5105634.382
10 0 59545  84942.000000  0     301872.066   3924307.484  -5660615.665
10 0 59545  85062.000000  0     476790.796   3145837.082  -6116649.555
10 0 59545  85182.000000  0     629316.922   2309948.929  -6465857.513
10 0 59545  85302.000000  0     755938.945   1431589.471  -6702219.766
10 0 59545  85422.000000  0     853863.348    526470.356  -6821669.019
10 0 59545  85542.000000  0     921071.443   -389208.773  -6822153.064
99
